{
  "norad_id": 59042,
  "name": "STARLINK-31202",
  "history": [
    {
      "epoch": "2026-03-28T20:00:01.999872Z",
      "apogee_km": 489.24912101075097,
      "perigee_km": 486.81396567516913,
      "latitude_deg": -25.340859181063063,
      "longitude_deg": 118.31213638886094,
      "height_km": 493.53259971008515,
      "semi_major_axis_km": 6866.168543342959,
      "eccentricity": 0.00017733,
      "inclination_deg": 43.0007,
      "raan_deg": 274.9018,
      "arg_perigee_deg": 270.6834,
      "mean_anomaly_deg": 50.7171,
      "mean_motion_rev_day": 15.25917565
    },
    {
      "epoch": "2026-03-29T04:00:01.999584Z",
      "apogee_km": 489.42163707796317,
      "perigee_km": 485.1293811772575,
      "latitude_deg": -3.763614894225457,
      "longitude_deg": 22.409140348700788,
      "height_km": 486.25384353695887,
      "semi_major_axis_km": 6865.41250912761,
      "eccentricity": 0.0003126,
      "inclination_deg": 43.0009,
      "raan_deg": 273.0168,
      "arg_perigee_deg": 304.0108,
      "mean_anomaly_deg": 50.5561,
      "mean_motion_rev_day": 15.26169628
    },
    {
      "epoch": "2026-03-30T04:00:01.999584Z",
      "apogee_km": 486.4526388811473,
      "perigee_km": 484.2247546699755,
      "latitude_deg": 42.881145562087525,
      "longitude_deg": 117.79239192581973,
      "height_km": 489.53277570556685,
      "semi_major_axis_km": 6863.475696775561,
      "eccentricity": 0.0001623,
      "inclination_deg": 43.0009,
      "raan_deg": 267.3843,
      "arg_perigee_deg": 283.9385,
      "mean_anomaly_deg": 171.9055,
      "mean_motion_rev_day": 15.26815681
    },
    {
      "epoch": "2026-03-30T12:00:02.000160Z",
      "apogee_km": 484.76587797264256,
      "perigee_km": 482.390077778703,
      "latitude_deg": 31.45824081909665,
      "longitude_deg": 36.876372628796936,
      "height_km": 485.28881366665786,
      "semi_major_axis_km": 6861.714977875673,
      "eccentricity": 0.00017312,
      "inclination_deg": 43.0007,
      "raan_deg": 265.5009,
      "arg_perigee_deg": 269.1123,
      "mean_anomaly_deg": 221.2061,
      "mean_motion_rev_day": 15.27403391
    },
    {
      "epoch": "2026-03-30T19:16:48.098208Z",
      "apogee_km": 486.4420295303571,
      "perigee_km": 483.31702358515486,
      "latitude_deg": 2.7357005292893052e-05,
      "longitude_deg": 146.40139290525372,
      "height_km": 484.61630660396526,
      "semi_major_axis_km": 6863.016526557756,
      "eccentricity": 0.00022767,
      "inclination_deg": 43.0026,
      "raan_deg": 263.7916,
      "arg_perigee_deg": 271.5017,
      "mean_anomaly_deg": 88.5574,
      "mean_motion_rev_day": 15.26968911
    },
    {
      "epoch": "2026-03-31T20:23:24.532800Z",
      "apogee_km": 485.01543040325305,
      "perigee_km": 482.13213953140894,
      "latitude_deg": 5.639595518775182e-06,
      "longitude_deg": 122.80832435290131,
      "height_km": 483.8836320843807,
      "semi_major_axis_km": 6861.71078496733,
      "eccentricity": 0.0002101,
      "inclination_deg": 43.0001,
      "raan_deg": 257.8816,
      "arg_perigee_deg": 248.3123,
      "mean_anomaly_deg": 111.7505,
      "mean_motion_rev_day": 15.27404791
    },
    {
      "epoch": "2026-04-01T20:00:01.999008Z",
      "apogee_km": 484.243704175713,
      "perigee_km": 481.92186740020225,
      "latitude_deg": 11.3015467568919,
      "longitude_deg": 134.4343045537218,
      "height_km": 482.6219209402763,
      "semi_major_axis_km": 6861.219785787957,
      "eccentricity": 0.0001692,
      "inclination_deg": 43.0011,
      "raan_deg": 252.3282,
      "arg_perigee_deg": 259.6906,
      "mean_anomaly_deg": 116.9746,
      "mean_motion_rev_day": 15.27568749
    },
    {
      "epoch": "2026-04-02T20:00:01.999008Z",
      "apogee_km": 484.1614685179402,
      "perigee_km": 482.26910755690005,
      "latitude_deg": 35.23979371878435,
      "longitude_deg": -113.38735560546614,
      "height_km": 485.5225947155318,
      "semi_major_axis_km": 6861.35228803742,
      "eccentricity": 0.0001379,
      "inclination_deg": 43.0014,
      "raan_deg": 246.6802,
      "arg_perigee_deg": 270.7081,
      "mean_anomaly_deg": 211.8187,
      "mean_motion_rev_day": 15.275245
    },
    {
      "epoch": "2026-04-02T22:00:01.999584Z",
      "apogee_km": 484.5620688361969,
      "perigee_km": 481.7765157076601,
      "latitude_deg": -26.94435615036831,
      "longitude_deg": -62.2341079853636,
      "height_km": 489.212879039,
      "semi_major_axis_km": 6861.306292271928,
      "eccentricity": 0.00020299,
      "inclination_deg": 43.0012,
      "raan_deg": 246.209,
      "arg_perigee_deg": 275.4887,
      "mean_anomaly_deg": 305.8662,
      "mean_motion_rev_day": 15.2753986
    },
    {
      "epoch": "2026-04-03T19:00:21.544128Z",
      "apogee_km": 484.0992174457306,
      "perigee_km": 482.1053413111431,
      "latitude_deg": -1.695386955509818e-05,
      "longitude_deg": 124.05316578805014,
      "height_km": 482.83773814008646,
      "semi_major_axis_km": 6861.239279378437,
      "eccentricity": 0.0001453,
      "inclination_deg": 43.0015,
      "raan_deg": 241.2641,
      "arg_perigee_deg": 272.3836,
      "mean_anomaly_deg": 87.6849,
      "mean_motion_rev_day": 15.27562239
    },
    {
      "epoch": "2026-04-04T20:06:51.114240Z",
      "apogee_km": 483.90231792071245,
      "perigee_km": 481.9002669469801,
      "latitude_deg": -3.610748944000682e-05,
      "longitude_deg": 100.4908780454479,
      "height_km": 482.4858158962067,
      "semi_major_axis_km": 6861.038292433846,
      "eccentricity": 0.0001459,
      "inclination_deg": 43.0014,
      "raan_deg": 235.3562,
      "arg_perigee_deg": 281.0806,
      "mean_anomaly_deg": 78.9881,
      "mean_motion_rev_day": 15.27629362
    }
  ]
}